{
  "type": "FeatureCollection",
  "features": [
    {
      "type": "Feature",
      "properties": {
        "norad_id": 67147,
        "name": "KUIPER-00221",
        "group": "last-30-days",
        "lat": 43.18683968710345,
        "lon": 102.73238046956436,
        "alt_km": 450.80941728287326,
        "timestamp": "2025-12-27T05:29:37.920877+00:00",
        "meta_object_name": "KUIPER-00221",
        "meta_object_id": "2025-301Q",
        "meta_epoch": "2025-12-26T21:25:23.241504",
        "meta_mean_motion": 15.35774703,
        "meta_eccentricity": 0.00050468,
        "meta_inclination": 51.8727,
        "meta_ra_of_asc_node": 56.8598,
        "meta_arg_of_pericenter": 116.3126,
        "meta_mean_anomaly": 243.8379,
        "meta_ephemeris_type": 0,
        "meta_classification_type": "U",
        "meta_norad_cat_id": 67147,
        "meta_element_set_no": 999,
        "meta_rev_at_epoch": 254,
        "meta_bstar": 0.0010019551,
        "meta_mean_motion_dot": 0.00035198,
        "meta_mean_motion_ddot": 0,
        "tle_line1": "1 67147U 25301Q   25360.89263011  .00035198  00000+0  10020-2 0  9992",
        "tle_line2": "2 67147  51.8727  56.8598 0005046 116.3126 243.8379 15.35774703  2542"
      },
      "geometry": {
        "type": "Point",
        "coordinates": [
          102.73238046956436,
          43.18683968710345
        ]
      }
    },
    {
      "type": "Feature",
      "properties": {
        "norad_id": 67148,
        "name": "KUIPER-00232",
        "group": "last-30-days",
        "lat": 50.73189844840388,
        "lon": 161.28602359600202,
        "alt_km": 448.02105982199646,
        "timestamp": "2025-12-27T05:29:37.920887+00:00",
        "meta_object_name": "KUIPER-00232",
        "meta_object_id": "2025-301R",
        "meta_epoch": "2025-12-26T19:41:45.337632",
        "meta_mean_motion": 15.36734624,
        "meta_eccentricity": 0.00015003,
        "meta_inclination": 51.875,
        "meta_ra_of_asc_node": 57.1247,
        "meta_arg_of_pericenter": 52.9877,
        "meta_mean_anomaly": 307.1247,
        "meta_ephemeris_type": 0,
        "meta_classification_type": "U",
        "meta_norad_cat_id": 67148,
        "meta_element_set_no": 999,
        "meta_rev_at_epoch": 253,
        "meta_bstar": 0.00095400262,
        "meta_mean_motion_dot": 0.0003454,
        "meta_mean_motion_ddot": 0,
        "tle_line1": "1 67148U 25301R   25360.82066363  .00034540  00000+0  95400-3 0  9993",
        "tle_line2": "2 67148  51.8750  57.1247 0001500  52.9877 307.1247 15.36734624  2539"
      },
      "geometry": {
        "type": "Point",
        "coordinates": [
          161.28602359600202,
          50.73189844840388
        ]
      }
    },
    {
      "type": "Feature",
      "properties": {
        "norad_id": 67149,
        "name": "KUIPER-00241",
        "group": "last-30-days",
        "lat": 51.048004477904264,
        "lon": 131.48466067338688,
        "alt_km": 448.1418061689619,
        "timestamp": "2025-12-27T05:29:37.920897+00:00",
        "meta_object_name": "KUIPER-00241",
        "meta_object_id": "2025-301S",
        "meta_epoch": "2025-12-26T16:39:05.731776",
        "meta_mean_motion": 15.36284193,
        "meta_eccentricity": 0.00029713,
        "meta_inclination": 51.8741,
        "meta_ra_of_asc_node": 57.7727,
        "meta_arg_of_pericenter": 101.8634,
        "meta_mean_anomaly": 258.2686,
        "meta_ephemeris_type": 0,
        "meta_classification_type": "U",
        "meta_norad_cat_id": 67149,
        "meta_element_set_no": 999,
        "meta_rev_at_epoch": 284,
        "meta_bstar": 0.00081376729,
        "meta_mean_motion_dot": 0.00028959,
        "meta_mean_motion_ddot": 0,
        "tle_line1": "1 67149U 25301S   25360.69381634  .00028959  00000+0  81377-3 0  9995",
        "tle_line2": "2 67149  51.8741  57.7727 0002971 101.8634 258.2686 15.36284193  2845"
      },
      "geometry": {
        "type": "Point",
        "coordinates": [
          131.48466067338688,
          51.048004477904264
        ]
      }
    },
    {
      "type": "Feature",
      "properties": {
        "norad_id": 67150,
        "name": "KUIPER-00245",
        "group": "last-30-days",
        "lat": 41.16988104906076,
        "lon": 98.62393479696267,
        "alt_km": 452.0176239455968,
        "timestamp": "2025-12-27T05:29:37.920907+00:00",
        "meta_object_name": "KUIPER-00245",
        "meta_object_id": "2025-301T",
        "meta_epoch": "2025-12-26T21:26:18.310272",
        "meta_mean_motion": 15.35682099,
        "meta_eccentricity": 0.00050666,
        "meta_inclination": 51.8732,
        "meta_ra_of_asc_node": 56.8625,
        "meta_arg_of_pericenter": 124.2663,
        "meta_mean_anomaly": 235.8804,
        "meta_ephemeris_type": 0,
        "meta_classification_type": "U",
        "meta_norad_cat_id": 67150,
        "meta_element_set_no": 999,
        "meta_rev_at_epoch": 254,
        "meta_bstar": 0.00084338961,
        "meta_mean_motion_dot": 0.00029455,
        "meta_mean_motion_ddot": 0,
        "tle_line1": "1 67150U 25301T   25360.89326748  .00029455  00000+0  84339-3 0  9997",
        "tle_line2": "2 67150  51.8732  56.8625 0005066 124.2663 235.8804 15.35682099  2549"
      },
      "geometry": {
        "type": "Point",
        "coordinates": [
          98.62393479696267,
          41.16988104906076
        ]
      }
    },
    {
      "type": "Feature",
      "properties": {
        "norad_id": 67151,
        "name": "KUIPER-00246",
        "group": "last-30-days",
        "lat": 47.47521972267926,
        "lon": 114.12517604218672,
        "alt_km": 449.76196757427533,
        "timestamp": "2025-12-27T05:29:37.920918+00:00",
        "meta_object_name": "KUIPER-00246",
        "meta_object_id": "2025-301U",
        "meta_epoch": "2025-12-26T21:23:05.080128",
        "meta_mean_motion": 15.35956716,
        "meta_eccentricity": 0.0004,
        "meta_inclination": 51.874,
        "meta_ra_of_asc_node": 56.8462,
        "meta_arg_of_pericenter": 118.848,
        "meta_mean_anomaly": 241.2908,
        "meta_ephemeris_type": 0,
        "meta_classification_type": "U",
        "meta_norad_cat_id": 67151,
        "meta_element_set_no": 999,
        "meta_rev_at_epoch": 256,
        "meta_bstar": 0.0011831309,
        "meta_mean_motion_dot": 0.00041909,
        "meta_mean_motion_ddot": 0,
        "tle_line1": "1 67151U 25301U   25360.89103102  .00041909  00000+0  11831-2 0  9999",
        "tle_line2": "2 67151  51.8740  56.8462 0004000 118.8480 241.2908 15.35956716  2569"
      },
      "geometry": {
        "type": "Point",
        "coordinates": [
          114.12517604218672,
          47.47521972267926
        ]
      }
    },
    {
      "type": "Feature",
      "properties": {
        "norad_id": 67152,
        "name": "KUIPER-00247",
        "group": "last-30-days",
        "lat": -7.042138317807112,
        "lon": 49.809271277842434,
        "alt_km": 472.81821462698736,
        "timestamp": "2025-12-27T05:29:37.920932+00:00",
        "meta_object_name": "KUIPER-00247",
        "meta_object_id": "2025-301V",
        "meta_epoch": "2025-12-26T15:27:40.931136",
        "meta_mean_motion": 15.34015344,
        "meta_eccentricity": 0.0011231,
        "meta_inclination": 51.8629,
        "meta_ra_of_asc_node": 58.1938,
        "meta_arg_of_pericenter": 154.7768,
        "meta_mean_anomaly": 205.3768,
        "meta_ephemeris_type": 0,
        "meta_classification_type": "U",
        "meta_norad_cat_id": 67152,
        "meta_element_set_no": 999,
        "meta_rev_at_epoch": 250,
        "meta_bstar": 0.00084978,
        "meta_mean_motion_dot": 0.00028169,
        "meta_mean_motion_ddot": 0,
        "tle_line1": "1 67152U 25301V   25360.64422374  .00028169  00000+0  84978-3 0  9994",
        "tle_line2": "2 67152  51.8629  58.1938 0011231 154.7768 205.3768 15.34015344  2502"
      },
      "geometry": {
        "type": "Point",
        "coordinates": [
          49.809271277842434,
          -7.042138317807112
        ]
      }
    },
    {
      "type": "Feature",
      "properties": {
        "norad_id": 67153,
        "name": "KUIPER-00248",
        "group": "last-30-days",
        "lat": 13.591700684362417,
        "lon": 66.27497798524614,
        "alt_km": 464.21726777897493,
        "timestamp": "2025-12-27T05:29:37.920942+00:00",
        "meta_object_name": "KUIPER-00248",
        "meta_object_id": "2025-301W",
        "meta_epoch": "2025-12-26T18:28:43.268736",
        "meta_mean_motion": 15.34705298,
        "meta_eccentricity": 0.00088064,
        "meta_inclination": 51.8678,
        "meta_ra_of_asc_node": 57.538,
        "meta_arg_of_pericenter": 143.5222,
        "meta_mean_anomaly": 216.6365,
        "meta_ephemeris_type": 0,
        "meta_classification_type": "U",
        "meta_norad_cat_id": 67153,
        "meta_element_set_no": 999,
        "meta_rev_at_epoch": 269,
        "meta_bstar": 0.00087641785,
        "meta_mean_motion_dot": 0.00029699,
        "meta_mean_motion_ddot": 0,
        "tle_line1": "1 67153U 25301W   25360.76994524  .00029699  00000+0  87642-3 0  9999",
        "tle_line2": "2 67153  51.8678  57.5380 0008806 143.5222 216.6365 15.34705298  2698"
      },
      "geometry": {
        "type": "Point",
        "coordinates": [
          66.27497798524614,
          13.591700684362417
        ]
      }
    }
  ]
}